IRIDIUM 136             
1 42962U 17061H   23302.84336325  .00000564  00000+0  19440-3 0  9997
2 42962  86.3965  66.9979 0001915  87.6453 272.4962 14.34219494317045
